[
	{
		"name_en": "Afghanistan",
		"name_ru": "ĞÑ„Ğ³Ğ°Ğ½Ğ¸ÑÑ‚Ğ°Ğ½",
		"code": "AF",
		"flag": "ğŸ‡¦ğŸ‡«",
		"latitude": "33",
		"longitude": "65"
	},
	{
		"name_en": "Ã…land Islands",
		"name_ru": "ĞĞ»Ğ°Ğ½Ğ´ÑĞºĞ¸Ğµ Ğ¾ÑÑ‚Ñ€Ğ¾Ğ²Ğ°",
		"code": "AX",
		"flag": "ğŸ‡¦ğŸ‡½",
		"latitude": "60.116667",
		"longitude": "19.9"
	},
	{
		"name_en": "Albania",
		"name_ru": "ĞĞ»Ğ±Ğ°Ğ½Ğ¸Ñ",
		"code": "AL",
		"flag": "ğŸ‡¦ğŸ‡±",
		"latitude": "41",
		"longitude": "20"
	},
	{
		"name_en": "Algeria",
		"name_ru": "ĞĞ»Ğ¶Ğ¸Ñ€",
		"code": "DZ",
		"flag": "ğŸ‡©ğŸ‡¿",
		"latitude": "28",
		"longitude": "3"
	},
	{
		"name_en": "American Samoa",
		"name_ru": "ĞĞ¼ĞµÑ€Ğ¸ĞºĞ°Ğ½ÑĞºĞ¾Ğµ Ğ¡Ğ°Ğ¼Ğ¾Ğ°",
		"code": "AS",
		"flag": "ğŸ‡¦ğŸ‡¸",
		"latitude": "-14.33333333",
		"longitude": "-170"
	},
	{
		"name_en": "Andorra",
		"name_ru": "ĞĞ½Ğ´Ğ¾Ñ€Ñ€Ğ°",
		"code": "AD",
		"flag": "ğŸ‡¦ğŸ‡©",
		"latitude": "42.5",
		"longitude": "1.5"
	},
	{
		"name_en": "Angola",
		"name_ru": "ĞĞ½Ğ³Ğ¾Ğ»Ğ°",
		"code": "AO",
		"flag": "ğŸ‡¦ğŸ‡´",
		"latitude": "-12.5",
		"longitude": "18.5"
	},
	{
		"name_en": "Anguilla",
		"name_ru": "ĞĞ½Ğ³Ğ¸Ğ»ÑŒÑ",
		"code": "AI",
		"flag": "ğŸ‡¦ğŸ‡®",
		"latitude": "18.25",
		"longitude": "-63.16666666"
	},
	{
		"name_en": "Antarctica",
		"name_ru": "ĞĞ½Ñ‚Ğ°Ñ€ĞºÑ‚Ğ¸Ğ´Ğ°",
		"code": "AQ",
		"flag": "ğŸ‡¦ğŸ‡¶",
		"latitude": "-90",
		"longitude": "0"
	},
	{
		"name_en": "Antigua and Barbuda",
		"name_ru": "ĞĞ½Ñ‚Ğ¸Ğ³ÑƒĞ° Ğ¸ Ğ‘Ğ°Ñ€Ğ±ÑƒĞ´Ğ°",
		"code": "AG",
		"flag": "ğŸ‡¦ğŸ‡¬",
		"latitude": "17.05",
		"longitude": "-61.8"
	},
	{
		"name_en": "Argentina",
		"name_ru": "ĞÑ€Ğ³ĞµĞ½Ñ‚Ğ¸Ğ½Ğ°",
		"code": "AR",
		"flag": "ğŸ‡¦ğŸ‡·",
		"latitude": "-34",
		"longitude": "-64"
	},
	{
		"name_en": "Armenia",
		"name_ru": "ĞÑ€Ğ¼ĞµĞ½Ğ¸Ñ",
		"code": "AM",
		"flag": "ğŸ‡¦ğŸ‡²",
		"latitude": "40",
		"longitude": "45"
	},
	{
		"name_en": "Aruba",
		"name_ru": "ĞÑ€ÑƒĞ±Ğ°",
		"code": "AW",
		"flag": "ğŸ‡¦ğŸ‡¼",
		"latitude": "12.5",
		"longitude": "-69.96666666"
	},
	{
		"name_en": "Australia",
		"name_ru": "ĞĞ²ÑÑ‚Ñ€Ğ°Ğ»Ğ¸Ñ",
		"code": "AU",
		"flag": "ğŸ‡¦ğŸ‡º",
		"latitude": "-27",
		"longitude": "133"
	},
	{
		"name_en": "Austria",
		"name_ru": "ĞĞ²ÑÑ‚Ñ€Ğ¸Ñ",
		"code": "AT",
		"flag": "ğŸ‡¦ğŸ‡¹",
		"latitude": "47.33333333",
		"longitude": "13.33333333"
	},
	{
		"name_en": "Azerbaijan",
		"name_ru": "ĞĞ·ĞµÑ€Ğ±Ğ°Ğ¹Ğ´Ğ¶Ğ°Ğ½",
		"code": "AZ",
		"flag": "ğŸ‡¦ğŸ‡¿",
		"latitude": "40.5",
		"longitude": "47.5"
	},
	{
		"name_en": "Bahamas",
		"name_ru": "Ğ‘Ğ°Ğ³Ğ°Ğ¼ÑĞºĞ¸Ğµ ĞÑÑ‚Ñ€Ğ¾Ğ²Ğ°",
		"code": "BS",
		"flag": "ğŸ‡§ğŸ‡¸",
		"latitude": "24.25",
		"longitude": "-76"
	},
	{
		"name_en": "Bahrain",
		"name_ru": "Ğ‘Ğ°Ñ…Ñ€ĞµĞ¹Ğ½",
		"code": "BH",
		"flag": "ğŸ‡§ğŸ‡­",
		"latitude": "26",
		"longitude": "50.55"
	},
	{
		"name_en": "Bangladesh",
		"name_ru": "Ğ‘Ğ°Ğ½Ğ³Ğ»Ğ°Ğ´ĞµÑˆ",
		"code": "BD",
		"flag": "ğŸ‡§ğŸ‡©",
		"latitude": "24",
		"longitude": "90"
	},
	{
		"name_en": "Barbados",
		"name_ru": "Ğ‘Ğ°Ñ€Ğ±Ğ°Ğ´Ğ¾Ñ",
		"code": "BB",
		"flag": "ğŸ‡§ğŸ‡§",
		"latitude": "13.16666666",
		"longitude": "-59.53333333"
	},
	{
		"name_en": "Belarus",
		"name_ru": "Ğ‘ĞµĞ»Ğ°Ñ€ÑƒÑÑŒ",
		"code": "BY",
		"flag": "ğŸ‡§ğŸ‡¾",
		"latitude": "53",
		"longitude": "28"
	},
	{
		"name_en": "Belgium",
		"name_ru": "Ğ‘ĞµĞ»ÑŒĞ³Ğ¸Ñ",
		"code": "BE",
		"flag": "ğŸ‡§ğŸ‡ª",
		"latitude": "50.83333333",
		"longitude": "4"
	},
	{
		"name_en": "Belize",
		"name_ru": "Ğ‘ĞµĞ»Ğ¸Ğ·",
		"code": "BZ",
		"flag": "ğŸ‡§ğŸ‡¿",
		"latitude": "17.25",
		"longitude": "-88.75"
	},
	{
		"name_en": "Benin",
		"name_ru": "Ğ‘ĞµĞ½Ğ¸Ğ½",
		"code": "BJ",
		"flag": "ğŸ‡§ğŸ‡¯",
		"latitude": "9.5",
		"longitude": "2.25"
	},
	{
		"name_en": "Bermuda",
		"name_ru": "Ğ‘ĞµÑ€Ğ¼ÑƒĞ´ÑĞºĞ¸Ğµ ĞÑÑ‚Ñ€Ğ¾Ğ²Ğ°",
		"code": "BM",
		"flag": "ğŸ‡§ğŸ‡²",
		"latitude": "32.33333333",
		"longitude": "-64.75"
	},
	{
		"name_en": "Bhutan",
		"name_ru": "Ğ‘ÑƒÑ‚Ğ°Ğ½",
		"code": "BT",
		"flag": "ğŸ‡§ğŸ‡¹",
		"latitude": "27.5",
		"longitude": "90.5"
	},
	{
		"name_en": "Bolivia",
		"name_ru": "Ğ‘Ğ¾Ğ»Ğ¸Ğ²Ğ¸Ñ",
		"code": "BO",
		"flag": "ğŸ‡§ğŸ‡´",
		"latitude": "-17",
		"longitude": "-65"
	},
	{
		"name_en": "Bosnia and Herzegovina",
		"name_ru": "Ğ‘Ğ¾ÑĞ½Ğ¸Ñ Ğ¸ Ğ“ĞµÑ€Ñ†ĞµĞ³Ğ¾Ğ²Ğ¸Ğ½Ğ°",
		"code": "BA",
		"flag": "ğŸ‡§ğŸ‡¦",
		"latitude": "44",
		"longitude": "18"
	},
	{
		"name_en": "Botswana",
		"name_ru": "Ğ‘Ğ¾Ñ‚ÑĞ²Ğ°Ğ½Ğ°",
		"code": "BW",
		"flag": "ğŸ‡§ğŸ‡¼",
		"latitude": "-22",
		"longitude": "24"
	},
	{
		"name_en": "Bouvet Island",
		"name_ru": "ĞÑÑ‚Ñ€Ğ¾Ğ² Ğ‘ÑƒĞ²Ğµ",
		"code": "BV",
		"flag": "ğŸ‡§ğŸ‡»",
		"latitude": "-54.43333333",
		"longitude": "3.4"
	},
	{
		"name_en": "Brazil",
		"name_ru": "Ğ‘Ñ€Ğ°Ğ·Ğ¸Ğ»Ğ¸Ñ",
		"code": "BR",
		"flag": "ğŸ‡§ğŸ‡·",
		"latitude": "-10",
		"longitude": "-55"
	},
	{
		"name_en": "British Indian Ocean Territory",
		"name_ru": "Ğ‘Ñ€Ğ¸Ñ‚Ğ°Ğ½ÑĞºĞ°Ñ Ñ‚ĞµÑ€Ñ€Ğ¸Ñ‚Ğ¾Ñ€Ğ¸Ñ Ğ² Ğ˜Ğ½Ğ´Ğ¸Ğ¹ÑĞºĞ¾Ğ¼ Ğ¾ĞºĞµĞ°Ğ½Ğµ",
		"code": "IO",
		"flag": "ğŸ‡®ğŸ‡´",
		"latitude": "-6",
		"longitude": "71.5"
	},
	{
		"name_en": "British Virgin Islands",
		"name_ru": "Ğ‘Ñ€Ğ¸Ñ‚Ğ°Ğ½ÑĞºĞ¸Ğµ Ğ’Ğ¸Ñ€Ğ³Ğ¸Ğ½ÑĞºĞ¸Ğµ Ğ¾ÑÑ‚Ñ€Ğ¾Ğ²Ğ°",
		"code": "VG",
		"flag": "ğŸ‡»ğŸ‡¬",
		"latitude": "18.431383",
		"longitude": "-64.62305"
	},
	{
		"name_en": "Brunei",
		"name_ru": "Ğ‘Ñ€ÑƒĞ½ĞµĞ¹",
		"code": "BN",
		"flag": "ğŸ‡§ğŸ‡³",
		"latitude": "4.5",
		"longitude": "114.66666666"
	},
	{
		"name_en": "Bulgaria",
		"name_ru": "Ğ‘Ğ¾Ğ»Ğ³Ğ°Ñ€Ğ¸Ñ",
		"code": "BG",
		"flag": "ğŸ‡§ğŸ‡¬",
		"latitude": "43",
		"longitude": "25"
	},
	{
		"name_en": "Burkina Faso",
		"name_ru": "Ğ‘ÑƒÑ€ĞºĞ¸Ğ½Ğ°-Ğ¤Ğ°ÑĞ¾",
		"code": "BF",
		"flag": "ğŸ‡§ğŸ‡«",
		"latitude": "13",
		"longitude": "-2"
	},
	{
		"name_en": "Burundi",
		"name_ru": "Ğ‘ÑƒÑ€ÑƒĞ½Ğ´Ğ¸",
		"code": "BI",
		"flag": "ğŸ‡§ğŸ‡®",
		"latitude": "-3.5",
		"longitude": "30"
	},
	{
		"name_en": "Cambodia",
		"name_ru": "ĞšĞ°Ğ¼Ğ±Ğ¾Ğ´Ğ¶Ğ°",
		"code": "KH",
		"flag": "ğŸ‡°ğŸ‡­",
		"latitude": "13",
		"longitude": "105"
	},
	{
		"name_en": "Cameroon",
		"name_ru": "ĞšĞ°Ğ¼ĞµÑ€ÑƒĞ½",
		"code": "CM",
		"flag": "ğŸ‡¨ğŸ‡²",
		"latitude": "6",
		"longitude": "12"
	},
	{
		"name_en": "Canada",
		"name_ru": "ĞšĞ°Ğ½Ğ°Ğ´Ğ°",
		"code": "CA",
		"flag": "ğŸ‡¨ğŸ‡¦",
		"latitude": "60",
		"longitude": "-95"
	},
	{
		"name_en": "Cape Verde",
		"name_ru": "ĞšĞ°Ğ±Ğ¾-Ğ’ĞµÑ€Ğ´Ğµ",
		"code": "CV",
		"flag": "ğŸ‡¨ğŸ‡»",
		"latitude": "16",
		"longitude": "-24"
	},
	{
		"name_en": "Caribbean Netherlands",
		"name_ru": "ĞšĞ°Ñ€Ğ¸Ğ±ÑĞºĞ¸Ğµ ĞĞ¸Ğ´ĞµÑ€Ğ»Ğ°Ğ½Ğ´Ñ‹",
		"code": "BQ",
		"flag": "",
		"latitude": "12.18",
		"longitude": "-68.25"
	},
	{
		"name_en": "Cayman Islands",
		"name_ru": "ĞšĞ°Ğ¹Ğ¼Ğ°Ğ½Ğ¾Ğ²Ñ‹ Ğ¾ÑÑ‚Ñ€Ğ¾Ğ²Ğ°",
		"code": "KY",
		"flag": "ğŸ‡°ğŸ‡¾",
		"latitude": "19.5",
		"longitude": "-80.5"
	},
	{
		"name_en": "Central African Republic",
		"name_ru": "Ğ¦ĞµĞ½Ñ‚Ñ€Ğ°Ğ»ÑŒĞ½Ğ¾Ğ°Ñ„Ñ€Ğ¸ĞºĞ°Ğ½ÑĞºĞ°Ñ Ğ ĞµÑĞ¿ÑƒĞ±Ğ»Ğ¸ĞºĞ°",
		"code": "CF",
		"flag": "ğŸ‡¨ğŸ‡«",
		"latitude": "7",
		"longitude": "21"
	},
	{
		"name_en": "Chad",
		"name_ru": "Ğ§Ğ°Ğ´",
		"code": "TD",
		"flag": "ğŸ‡¹ğŸ‡©",
		"latitude": "15",
		"longitude": "19"
	},
	{
		"name_en": "Chile",
		"name_ru": "Ğ§Ğ¸Ğ»Ğ¸",
		"code": "CL",
		"flag": "ğŸ‡¨ğŸ‡±",
		"latitude": "-30",
		"longitude": "-71"
	},
	{
		"name_en": "China",
		"name_ru": "ĞšĞ¸Ñ‚Ğ°Ğ¹",
		"code": "CN",
		"flag": "ğŸ‡¨ğŸ‡³",
		"latitude": "35",
		"longitude": "105"
	},
	{
		"name_en": "Christmas Island",
		"name_ru": "ĞÑÑ‚Ñ€Ğ¾Ğ² Ğ Ğ¾Ğ¶Ğ´ĞµÑÑ‚Ğ²Ğ°",
		"code": "CX",
		"flag": "ğŸ‡¨ğŸ‡½",
		"latitude": "-10.5",
		"longitude": "105.66666666"
	},
	{
		"name_en": "Cocos (Keeling) Islands",
		"name_ru": "ĞšĞ¾ĞºĞ¾ÑĞ¾Ğ²Ñ‹Ğµ Ğ¾ÑÑ‚Ñ€Ğ¾Ğ²Ğ°",
		"code": "CC",
		"flag": "ğŸ‡¨ğŸ‡¨",
		"latitude": "-12.5",
		"longitude": "96.83333333"
	},
	{
		"name_en": "Colombia",
		"name_ru": "ĞšĞ¾Ğ»ÑƒĞ¼Ğ±Ğ¸Ñ",
		"code": "CO",
		"flag": "ğŸ‡¨ğŸ‡´",
		"latitude": "4",
		"longitude": "-72"
	},
	{
		"name_en": "Comoros",
		"name_ru": "ĞšĞ¾Ğ¼Ğ¾Ñ€Ñ‹",
		"code": "KM",
		"flag": "ğŸ‡°ğŸ‡²",
		"latitude": "-12.16666666",
		"longitude": "44.25"
	},
	{
		"name_en": "Congo",
		"name_ru": "Ğ ĞµÑĞ¿ÑƒĞ±Ğ»Ğ¸ĞºĞ° ĞšĞ¾Ğ½Ğ³Ğ¾",
		"code": "CG",
		"flag": "ğŸ‡¨ğŸ‡¬",
		"latitude": "-1",
		"longitude": "15"
	},
	{
		"name_en": "Cook Islands",
		"name_ru": "ĞÑÑ‚Ñ€Ğ¾Ğ²Ğ° ĞšÑƒĞºĞ°",
		"code": "CK",
		"flag": "ğŸ‡¨ğŸ‡°",
		"latitude": "-21.23333333",
		"longitude": "-159.76666666"
	},
	{
		"name_en": "Costa Rica",
		"name_ru": "ĞšĞ¾ÑÑ‚Ğ°-Ğ Ğ¸ĞºĞ°",
		"code": "CR",
		"flag": "ğŸ‡¨ğŸ‡·",
		"latitude": "10",
		"longitude": "-84"
	},
	{
		"name_en": "Croatia",
		"name_ru": "Ğ¥Ğ¾Ñ€Ğ²Ğ°Ñ‚Ğ¸Ñ",
		"code": "HR",
		"flag": "ğŸ‡­ğŸ‡·",
		"latitude": "45.16666666",
		"longitude": "15.5"
	},
	{
		"name_en": "Cuba",
		"name_ru": "ĞšÑƒĞ±Ğ°",
		"code": "CU",
		"flag": "ğŸ‡¨ğŸ‡º",
		"latitude": "21.5",
		"longitude": "-80"
	},
	{
		"name_en": "CuraÃ§ao",
		"name_ru": "ĞšÑÑ€Ğ°ÑĞ°Ğ¾",
		"code": "CW",
		"flag": "ğŸ‡¨ğŸ‡¼",
		"latitude": "12.116667",
		"longitude": "-68.933333"
	},
	{
		"name_en": "Cyprus",
		"name_ru": "ĞšĞ¸Ğ¿Ñ€",
		"code": "CY",
		"flag": "ğŸ‡¨ğŸ‡¾",
		"latitude": "35",
		"longitude": "33"
	},
	{
		"name_en": "Czechia",
		"name_ru": "Ğ§ĞµÑ…Ğ¸Ñ",
		"code": "CZ",
		"flag": "ğŸ‡¨ğŸ‡¿",
		"latitude": "49.75",
		"longitude": "15.5"
	},
	{
		"name_en": "Denmark",
		"name_ru": "Ğ”Ğ°Ğ½Ğ¸Ñ",
		"code": "DK",
		"flag": "ğŸ‡©ğŸ‡°",
		"latitude": "56",
		"longitude": "10"
	},
	{
		"name_en": "Djibouti",
		"name_ru": "Ğ”Ğ¶Ğ¸Ğ±ÑƒÑ‚Ğ¸",
		"code": "DJ",
		"flag": "ğŸ‡©ğŸ‡¯",
		"latitude": "11.5",
		"longitude": "43"
	},
	{
		"name_en": "Dominica",
		"name_ru": "Ğ”Ğ¾Ğ¼Ğ¸Ğ½Ğ¸ĞºĞ°",
		"code": "DM",
		"flag": "ğŸ‡©ğŸ‡²",
		"latitude": "15.41666666",
		"longitude": "-61.33333333"
	},
	{
		"name_en": "Dominican Republic",
		"name_ru": "Ğ”Ğ¾Ğ¼Ğ¸Ğ½Ğ¸ĞºĞ°Ğ½ÑĞºĞ°Ñ Ğ ĞµÑĞ¿ÑƒĞ±Ğ»Ğ¸ĞºĞ°",
		"code": "DO",
		"flag": "ğŸ‡©ğŸ‡´",
		"latitude": "19",
		"longitude": "-70.66666666"
	},
	{
		"name_en": "DR Congo",
		"name_ru": "Ğ”ĞµĞ¼Ğ¾ĞºÑ€Ğ°Ñ‚Ğ¸Ñ‡ĞµÑĞºĞ°Ñ Ğ ĞµÑĞ¿ÑƒĞ±Ğ»Ğ¸ĞºĞ° ĞšĞ¾Ğ½Ğ³Ğ¾",
		"code": "CD",
		"flag": "ğŸ‡¨ğŸ‡©",
		"latitude": "0",
		"longitude": "25"
	},
	{
		"name_en": "Ecuador",
		"name_ru": "Ğ­ĞºĞ²Ğ°Ğ´Ğ¾Ñ€",
		"code": "EC",
		"flag": "ğŸ‡ªğŸ‡¨",
		"latitude": "-2",
		"longitude": "-77.5"
	},
	{
		"name_en": "Egypt",
		"name_ru": "Ğ•Ğ³Ğ¸Ğ¿ĞµÑ‚",
		"code": "EG",
		"flag": "ğŸ‡ªğŸ‡¬",
		"latitude": "27",
		"longitude": "30"
	},
	{
		"name_en": "El Salvador",
		"name_ru": "Ğ¡Ğ°Ğ»ÑŒĞ²Ğ°Ğ´Ğ¾Ñ€",
		"code": "SV",
		"flag": "ğŸ‡¸ğŸ‡»",
		"latitude": "13.83333333",
		"longitude": "-88.91666666"
	},
	{
		"name_en": "Equatorial Guinea",
		"name_ru": "Ğ­ĞºĞ²Ğ°Ñ‚Ğ¾Ñ€Ğ¸Ğ°Ğ»ÑŒĞ½Ğ°Ñ Ğ“Ğ²Ğ¸Ğ½ĞµÑ",
		"code": "GQ",
		"flag": "ğŸ‡¬ğŸ‡¶",
		"latitude": "2",
		"longitude": "10"
	},
	{
		"name_en": "Eritrea",
		"name_ru": "Ğ­Ñ€Ğ¸Ñ‚Ñ€ĞµÑ",
		"code": "ER",
		"flag": "ğŸ‡ªğŸ‡·",
		"latitude": "15",
		"longitude": "39"
	},
	{
		"name_en": "Estonia",
		"name_ru": "Ğ­ÑÑ‚Ğ¾Ğ½Ğ¸Ñ",
		"code": "EE",
		"flag": "ğŸ‡ªğŸ‡ª",
		"latitude": "59",
		"longitude": "26"
	},
	{
		"name_en": "Eswatini",
		"name_ru": "Ğ¡Ğ²Ğ°Ğ·Ğ¸Ğ»ĞµĞ½Ğ´",
		"code": "SZ",
		"flag": "ğŸ‡¸ğŸ‡¿",
		"latitude": "-26.5",
		"longitude": "31.5"
	},
	{
		"name_en": "Ethiopia",
		"name_ru": "Ğ­Ñ„Ğ¸Ğ¾Ğ¿Ğ¸Ñ",
		"code": "ET",
		"flag": "ğŸ‡ªğŸ‡¹",
		"latitude": "8",
		"longitude": "38"
	},
	{
		"name_en": "Falkland Islands",
		"name_ru": "Ğ¤Ğ¾Ğ»ĞºĞ»ĞµĞ½Ğ´ÑĞºĞ¸Ğµ Ğ¾ÑÑ‚Ñ€Ğ¾Ğ²Ğ°",
		"code": "FK",
		"flag": "ğŸ‡«ğŸ‡°",
		"latitude": "-51.75",
		"longitude": "-59"
	},
	{
		"name_en": "Faroe Islands",
		"name_ru": "Ğ¤Ğ°Ñ€ĞµÑ€ÑĞºĞ¸Ğµ Ğ¾ÑÑ‚Ñ€Ğ¾Ğ²Ğ°",
		"code": "FO",
		"flag": "ğŸ‡«ğŸ‡´",
		"latitude": "62",
		"longitude": "-7"
	},
	{
		"name_en": "Fiji",
		"name_ru": "Ğ¤Ğ¸Ğ´Ğ¶Ğ¸",
		"code": "FJ",
		"flag": "ğŸ‡«ğŸ‡¯",
		"latitude": "-18",
		"longitude": "175"
	},
	{
		"name_en": "Finland",
		"name_ru": "Ğ¤Ğ¸Ğ½Ğ»ÑĞ½Ğ´Ğ¸Ñ",
		"code": "FI",
		"flag": "ğŸ‡«ğŸ‡®",
		"latitude": "64",
		"longitude": "26"
	},
	{
		"name_en": "France",
		"name_ru": "Ğ¤Ñ€Ğ°Ğ½Ñ†Ğ¸Ñ",
		"code": "FR",
		"flag": "ğŸ‡«ğŸ‡·",
		"latitude": "46",
		"longitude": "2"
	},
	{
		"name_en": "French Guiana",
		"name_ru": "Ğ¤Ñ€Ğ°Ğ½Ñ†ÑƒĞ·ÑĞºĞ°Ñ Ğ“Ğ²Ğ¸Ğ°Ğ½Ğ°",
		"code": "GF",
		"flag": "ğŸ‡¬ğŸ‡«",
		"latitude": "4",
		"longitude": "-53"
	},
	{
		"name_en": "French Polynesia",
		"name_ru": "Ğ¤Ñ€Ğ°Ğ½Ñ†ÑƒĞ·ÑĞºĞ°Ñ ĞŸĞ¾Ğ»Ğ¸Ğ½ĞµĞ·Ğ¸Ñ",
		"code": "PF",
		"flag": "ğŸ‡µğŸ‡«",
		"latitude": "-15",
		"longitude": "-140"
	},
	{
		"name_en": "French Southern and Antarctic Lands",
		"name_ru": "Ğ¤Ñ€Ğ°Ğ½Ñ†ÑƒĞ·ÑĞºĞ¸Ğµ Ğ®Ğ¶Ğ½Ñ‹Ğµ Ğ¸ ĞĞ½Ñ‚Ğ°Ñ€ĞºÑ‚Ğ¸Ñ‡ĞµÑĞºĞ¸Ğµ Ñ‚ĞµÑ€Ñ€Ğ¸Ñ‚Ğ¾Ñ€Ğ¸Ğ¸",
		"code": "TF",
		"flag": "ğŸ‡¹ğŸ‡«",
		"latitude": "-49.25",
		"longitude": "69.167"
	},
	{
		"name_en": "Gabon",
		"name_ru": "Ğ“Ğ°Ğ±Ğ¾Ğ½",
		"code": "GA",
		"flag": "ğŸ‡¬ğŸ‡¦",
		"latitude": "-1",
		"longitude": "11.75"
	},
	{
		"name_en": "Gambia",
		"name_ru": "Ğ“Ğ°Ğ¼Ğ±Ğ¸Ñ",
		"code": "GM",
		"flag": "ğŸ‡¬ğŸ‡²",
		"latitude": "13.46666666",
		"longitude": "-16.56666666"
	},
	{
		"name_en": "Georgia",
		"name_ru": "Ğ“Ñ€ÑƒĞ·Ğ¸Ñ",
		"code": "GE",
		"flag": "ğŸ‡¬ğŸ‡ª",
		"latitude": "42",
		"longitude": "43.5"
	},
	{
		"name_en": "Germany",
		"name_ru": "Ğ“ĞµÑ€Ğ¼Ğ°Ğ½Ğ¸Ñ",
		"code": "DE",
		"flag": "ğŸ‡©ğŸ‡ª",
		"latitude": "51",
		"longitude": "9"
	},
	{
		"name_en": "Ghana",
		"name_ru": "Ğ“Ğ°Ğ½Ğ°",
		"code": "GH",
		"flag": "ğŸ‡¬ğŸ‡­",
		"latitude": "8",
		"longitude": "-2"
	},
	{
		"name_en": "Gibraltar",
		"name_ru": "Ğ“Ğ¸Ğ±Ñ€Ğ°Ğ»Ñ‚Ğ°Ñ€",
		"code": "GI",
		"flag": "ğŸ‡¬ğŸ‡®",
		"latitude": "36.13333333",
		"longitude": "-5.35"
	},
	{
		"name_en": "Greece",
		"name_ru": "Ğ“Ñ€ĞµÑ†Ğ¸Ñ",
		"code": "GR",
		"flag": "ğŸ‡¬ğŸ‡·",
		"latitude": "39",
		"longitude": "22"
	},
	{
		"name_en": "Greenland",
		"name_ru": "Ğ“Ñ€ĞµĞ½Ğ»Ğ°Ğ½Ğ´Ğ¸Ñ",
		"code": "GL",
		"flag": "ğŸ‡¬ğŸ‡±",
		"latitude": "72",
		"longitude": "-40"
	},
	{
		"name_en": "Grenada",
		"name_ru": "Ğ“Ñ€ĞµĞ½Ğ°Ğ´Ğ°",
		"code": "GD",
		"flag": "ğŸ‡¬ğŸ‡©",
		"latitude": "12.11666666",
		"longitude": "-61.66666666"
	},
	{
		"name_en": "Guadeloupe",
		"name_ru": "Ğ“Ğ²Ğ°Ğ´ĞµĞ»ÑƒĞ¿Ğ°",
		"code": "GP",
		"flag": "ğŸ‡¬ğŸ‡µ",
		"latitude": "16.25",
		"longitude": "-61.583333"
	},
	{
		"name_en": "Guam",
		"name_ru": "Ğ“ÑƒĞ°Ğ¼",
		"code": "GU",
		"flag": "ğŸ‡¬ğŸ‡º",
		"latitude": "13.46666666",
		"longitude": "144.78333333"
	},
	{
		"name_en": "Guatemala",
		"name_ru": "Ğ“Ğ²Ğ°Ñ‚ĞµĞ¼Ğ°Ğ»Ğ°",
		"code": "GT",
		"flag": "ğŸ‡¬ğŸ‡¹",
		"latitude": "15.5",
		"longitude": "-90.25"
	},
	{
		"name_en": "Guernsey",
		"name_ru": "Ğ“ĞµÑ€Ğ½ÑĞ¸",
		"code": "GG",
		"flag": "ğŸ‡¬ğŸ‡¬",
		"latitude": "49.46666666",
		"longitude": "-2.58333333"
	},
	{
		"name_en": "Guinea",
		"name_ru": "Ğ“Ğ²Ğ¸Ğ½ĞµÑ",
		"code": "GN",
		"flag": "ğŸ‡¬ğŸ‡³",
		"latitude": "11",
		"longitude": "-10"
	},
	{
		"name_en": "Guinea-Bissau",
		"name_ru": "Ğ“Ğ²Ğ¸Ğ½ĞµÑ-Ğ‘Ğ¸ÑĞ°Ñƒ",
		"code": "GW",
		"flag": "ğŸ‡¬ğŸ‡¼",
		"latitude": "12",
		"longitude": "-15"
	},
	{
		"name_en": "Guyana",
		"name_ru": "Ğ“Ğ°Ğ¹Ğ°Ğ½Ğ°",
		"code": "GY",
		"flag": "ğŸ‡¬ğŸ‡¾",
		"latitude": "5",
		"longitude": "-59"
	},
	{
		"name_en": "Haiti",
		"name_ru": "Ğ“Ğ°Ğ¸Ñ‚Ğ¸",
		"code": "HT",
		"flag": "ğŸ‡­ğŸ‡¹",
		"latitude": "19",
		"longitude": "-72.41666666"
	},
	{
		"name_en": "Heard Island and McDonald Islands",
		"name_ru": "ĞÑÑ‚Ñ€Ğ¾Ğ² Ğ¥ĞµÑ€Ğ´ Ğ¸ Ğ¾ÑÑ‚Ñ€Ğ¾Ğ²Ğ° ĞœĞ°ĞºĞ´Ğ¾Ğ½Ğ°Ğ»ÑŒĞ´",
		"code": "HM",
		"flag": "ğŸ‡­ğŸ‡²",
		"latitude": "-53.1",
		"longitude": "72.51666666"
	},
	{
		"name_en": "Honduras",
		"name_ru": "Ğ“Ğ¾Ğ½Ğ´ÑƒÑ€Ğ°Ñ",
		"code": "HN",
		"flag": "ğŸ‡­ğŸ‡³",
		"latitude": "15",
		"longitude": "-86.5"
	},
	{
		"name_en": "Hong Kong",
		"name_ru": "Ğ“Ğ¾Ğ½ĞºĞ¾Ğ½Ğ³",
		"code": "HK",
		"flag": "ğŸ‡­ğŸ‡°",
		"latitude": "22.267",
		"longitude": "114.188"
	},
	{
		"name_en": "Hungary",
		"name_ru": "Ğ’ĞµĞ½Ğ³Ñ€Ğ¸Ñ",
		"code": "HU",
		"flag": "ğŸ‡­ğŸ‡º",
		"latitude": "47",
		"longitude": "20"
	},
	{
		"name_en": "Iceland",
		"name_ru": "Ğ˜ÑĞ»Ğ°Ğ½Ğ´Ğ¸Ñ",
		"code": "IS",
		"flag": "ğŸ‡®ğŸ‡¸",
		"latitude": "65",
		"longitude": "-18"
	},
	{
		"name_en": "India",
		"name_ru": "Ğ˜Ğ½Ğ´Ğ¸Ñ",
		"code": "IN",
		"flag": "ğŸ‡®ğŸ‡³",
		"latitude": "20",
		"longitude": "77"
	},
	{
		"name_en": "Indonesia",
		"name_ru": "Ğ˜Ğ½Ğ´Ğ¾Ğ½ĞµĞ·Ğ¸Ñ",
		"code": "ID",
		"flag": "ğŸ‡®ğŸ‡©",
		"latitude": "-5",
		"longitude": "120"
	},
	{
		"name_en": "Iran",
		"name_ru": "Ğ˜Ñ€Ğ°Ğ½",
		"code": "IR",
		"flag": "ğŸ‡®ğŸ‡·",
		"latitude": "32",
		"longitude": "53"
	},
	{
		"name_en": "Iraq",
		"name_ru": "Ğ˜Ñ€Ğ°Ğº",
		"code": "IQ",
		"flag": "ğŸ‡®ğŸ‡¶",
		"latitude": "33",
		"longitude": "44"
	},
	{
		"name_en": "Ireland",
		"name_ru": "Ğ˜Ñ€Ğ»Ğ°Ğ½Ğ´Ğ¸Ñ",
		"code": "IE",
		"flag": "ğŸ‡®ğŸ‡ª",
		"latitude": "53",
		"longitude": "-8"
	},
	{
		"name_en": "Isle of Man",
		"name_ru": "ĞÑÑ‚Ñ€Ğ¾Ğ² ĞœÑĞ½",
		"code": "IM",
		"flag": "ğŸ‡®ğŸ‡²",
		"latitude": "54.25",
		"longitude": "-4.5"
	},
	{
		"name_en": "Israel",
		"name_ru": "Ğ˜Ğ·Ñ€Ğ°Ğ¸Ğ»ÑŒ",
		"code": "IL",
		"flag": "ğŸ‡®ğŸ‡±",
		"latitude": "31.47",
		"longitude": "35.13"
	},
	{
		"name_en": "Italy",
		"name_ru": "Ğ˜Ñ‚Ğ°Ğ»Ğ¸Ñ",
		"code": "IT",
		"flag": "ğŸ‡®ğŸ‡¹",
		"latitude": "42.83333333",
		"longitude": "12.83333333"
	},
	{
		"name_en": "Ivory Coast",
		"name_ru": "ĞšĞ¾Ñ‚-Ğ´â€™Ğ˜Ğ²ÑƒĞ°Ñ€",
		"code": "CI",
		"flag": "ğŸ‡¨ğŸ‡®",
		"latitude": "8",
		"longitude": "-5"
	},
	{
		"name_en": "Jamaica",
		"name_ru": "Ğ¯Ğ¼Ğ°Ğ¹ĞºĞ°",
		"code": "JM",
		"flag": "ğŸ‡¯ğŸ‡²",
		"latitude": "18.25",
		"longitude": "-77.5"
	},
	{
		"name_en": "Japan",
		"name_ru": "Ğ¯Ğ¿Ğ¾Ğ½Ğ¸Ñ",
		"code": "JP",
		"flag": "ğŸ‡¯ğŸ‡µ",
		"latitude": "36",
		"longitude": "138"
	},
	{
		"name_en": "Jersey",
		"name_ru": "Ğ”Ğ¶ĞµÑ€ÑĞ¸",
		"code": "JE",
		"flag": "ğŸ‡¯ğŸ‡ª",
		"latitude": "49.25",
		"longitude": "-2.16666666"
	},
	{
		"name_en": "Jordan",
		"name_ru": "Ğ˜Ğ¾Ñ€Ğ´Ğ°Ğ½Ğ¸Ñ",
		"code": "JO",
		"flag": "ğŸ‡¯ğŸ‡´",
		"latitude": "31",
		"longitude": "36"
	},
	{
		"name_en": "Kazakhstan",
		"name_ru": "ĞšĞ°Ğ·Ğ°Ñ…ÑÑ‚Ğ°Ğ½",
		"code": "KZ",
		"flag": "ğŸ‡°ğŸ‡¿",
		"latitude": "48",
		"longitude": "68"
	},
	{
		"name_en": "Kenya",
		"name_ru": "ĞšĞµĞ½Ğ¸Ñ",
		"code": "KE",
		"flag": "ğŸ‡°ğŸ‡ª",
		"latitude": "1",
		"longitude": "38"
	},
	{
		"name_en": "Kiribati",
		"name_ru": "ĞšĞ¸Ñ€Ğ¸Ğ±Ğ°Ñ‚Ğ¸",
		"code": "KI",
		"flag": "ğŸ‡°ğŸ‡®",
		"latitude": "1.41666666",
		"longitude": "173"
	},
	{
		"name_en": "Kosovo",
		"name_ru": "Ğ ĞµÑĞ¿ÑƒĞ±Ğ»Ğ¸ĞºĞ° ĞšĞ¾ÑĞ¾Ğ²Ğ¾",
		"code": "XK",
		"flag": "ğŸ‡½ğŸ‡°",
		"latitude": "42.666667",
		"longitude": "21.166667"
	},
	{
		"name_en": "Kuwait",
		"name_ru": "ĞšÑƒĞ²ĞµĞ¹Ñ‚",
		"code": "KW",
		"flag": "ğŸ‡°ğŸ‡¼",
		"latitude": "29.5",
		"longitude": "45.75"
	},
	{
		"name_en": "Kyrgyzstan",
		"name_ru": "ĞšĞ¸Ñ€Ğ³Ğ¸Ğ·Ğ¸Ñ",
		"code": "KG",
		"flag": "ğŸ‡°ğŸ‡¬",
		"latitude": "41",
		"longitude": "75"
	},
	{
		"name_en": "Laos",
		"name_ru": "Ğ›Ğ°Ğ¾Ñ",
		"code": "LA",
		"flag": "ğŸ‡±ğŸ‡¦",
		"latitude": "18",
		"longitude": "105"
	},
	{
		"name_en": "Latvia",
		"name_ru": "Ğ›Ğ°Ñ‚Ğ²Ğ¸Ñ",
		"code": "LV",
		"flag": "ğŸ‡±ğŸ‡»",
		"latitude": "57",
		"longitude": "25"
	},
	{
		"name_en": "Lebanon",
		"name_ru": "Ğ›Ğ¸Ğ²Ğ°Ğ½",
		"code": "LB",
		"flag": "ğŸ‡±ğŸ‡§",
		"latitude": "33.83333333",
		"longitude": "35.83333333"
	},
	{
		"name_en": "Lesotho",
		"name_ru": "Ğ›ĞµÑĞ¾Ñ‚Ğ¾",
		"code": "LS",
		"flag": "ğŸ‡±ğŸ‡¸",
		"latitude": "-29.5",
		"longitude": "28.5"
	},
	{
		"name_en": "Liberia",
		"name_ru": "Ğ›Ğ¸Ğ±ĞµÑ€Ğ¸Ñ",
		"code": "LR",
		"flag": "ğŸ‡±ğŸ‡·",
		"latitude": "6.5",
		"longitude": "-9.5"
	},
	{
		"name_en": "Libya",
		"name_ru": "Ğ›Ğ¸Ğ²Ğ¸Ñ",
		"code": "LY",
		"flag": "ğŸ‡±ğŸ‡¾",
		"latitude": "25",
		"longitude": "17"
	},
	{
		"name_en": "Liechtenstein",
		"name_ru": "Ğ›Ğ¸Ñ…Ñ‚ĞµĞ½ÑˆÑ‚ĞµĞ¹Ğ½",
		"code": "LI",
		"flag": "ğŸ‡±ğŸ‡®",
		"latitude": "47.26666666",
		"longitude": "9.53333333"
	},
	{
		"name_en": "Lithuania",
		"name_ru": "Ğ›Ğ¸Ñ‚Ğ²Ğ°",
		"code": "LT",
		"flag": "ğŸ‡±ğŸ‡¹",
		"latitude": "56",
		"longitude": "24"
	},
	{
		"name_en": "Luxembourg",
		"name_ru": "Ğ›ÑĞºÑĞµĞ¼Ğ±ÑƒÑ€Ğ³",
		"code": "LU",
		"flag": "ğŸ‡±ğŸ‡º",
		"latitude": "49.75",
		"longitude": "6.16666666"
	},
	{
		"name_en": "Macau",
		"name_ru": "ĞœĞ°ĞºĞ°Ğ¾",
		"code": "MO",
		"flag": "ğŸ‡²ğŸ‡´",
		"latitude": "22.16666666",
		"longitude": "113.55"
	},
	{
		"name_en": "Madagascar",
		"name_ru": "ĞœĞ°Ğ´Ğ°Ğ³Ğ°ÑĞºĞ°Ñ€",
		"code": "MG",
		"flag": "ğŸ‡²ğŸ‡¬",
		"latitude": "-20",
		"longitude": "47"
	},
	{
		"name_en": "Malawi",
		"name_ru": "ĞœĞ°Ğ»Ğ°Ğ²Ğ¸",
		"code": "MW",
		"flag": "ğŸ‡²ğŸ‡¼",
		"latitude": "-13.5",
		"longitude": "34"
	},
	{
		"name_en": "Malaysia",
		"name_ru": "ĞœĞ°Ğ»Ğ°Ğ¹Ğ·Ğ¸Ñ",
		"code": "MY",
		"flag": "ğŸ‡²ğŸ‡¾",
		"latitude": "2.5",
		"longitude": "112.5"
	},
	{
		"name_en": "Maldives",
		"name_ru": "ĞœĞ°Ğ»ÑŒĞ´Ğ¸Ğ²Ñ‹",
		"code": "MV",
		"flag": "ğŸ‡²ğŸ‡»",
		"latitude": "3.25",
		"longitude": "73"
	},
	{
		"name_en": "Mali",
		"name_ru": "ĞœĞ°Ğ»Ğ¸",
		"code": "ML",
		"flag": "ğŸ‡²ğŸ‡±",
		"latitude": "17",
		"longitude": "-4"
	},
	{
		"name_en": "Malta",
		"name_ru": "ĞœĞ°Ğ»ÑŒÑ‚Ğ°",
		"code": "MT",
		"flag": "ğŸ‡²ğŸ‡¹",
		"latitude": "35.83333333",
		"longitude": "14.58333333"
	},
	{
		"name_en": "Marshall Islands",
		"name_ru": "ĞœĞ°Ñ€ÑˆĞ°Ğ»Ğ»Ğ¾Ğ²Ñ‹ ĞÑÑ‚Ñ€Ğ¾Ğ²Ğ°",
		"code": "MH",
		"flag": "ğŸ‡²ğŸ‡­",
		"latitude": "9",
		"longitude": "168"
	},
	{
		"name_en": "Martinique",
		"name_ru": "ĞœĞ°Ñ€Ñ‚Ğ¸Ğ½Ğ¸ĞºĞ°",
		"code": "MQ",
		"flag": "ğŸ‡²ğŸ‡¶",
		"latitude": "14.666667",
		"longitude": "-61"
	},
	{
		"name_en": "Mauritania",
		"name_ru": "ĞœĞ°Ğ²Ñ€Ğ¸Ñ‚Ğ°Ğ½Ğ¸Ñ",
		"code": "MR",
		"flag": "ğŸ‡²ğŸ‡·",
		"latitude": "20",
		"longitude": "-12"
	},
	{
		"name_en": "Mauritius",
		"name_ru": "ĞœĞ°Ğ²Ñ€Ğ¸ĞºĞ¸Ğ¹",
		"code": "MU",
		"flag": "ğŸ‡²ğŸ‡º",
		"latitude": "-20.28333333",
		"longitude": "57.55"
	},
	{
		"name_en": "Mayotte",
		"name_ru": "ĞœĞ°Ğ¹Ğ¾Ñ‚Ñ‚Ğ°",
		"code": "YT",
		"flag": "ğŸ‡¾ğŸ‡¹",
		"latitude": "-12.83333333",
		"longitude": "45.16666666"
	},
	{
		"name_en": "Mexico",
		"name_ru": "ĞœĞµĞºÑĞ¸ĞºĞ°",
		"code": "MX",
		"flag": "ğŸ‡²ğŸ‡½",
		"latitude": "23",
		"longitude": "-102"
	},
	{
		"name_en": "Micronesia",
		"name_ru": "Ğ¤ĞµĞ´ĞµÑ€Ğ°Ñ‚Ğ¸Ğ²Ğ½Ñ‹Ğµ Ğ¨Ñ‚Ğ°Ñ‚Ñ‹ ĞœĞ¸ĞºÑ€Ğ¾Ğ½ĞµĞ·Ğ¸Ğ¸",
		"code": "FM",
		"flag": "ğŸ‡«ğŸ‡²",
		"latitude": "6.91666666",
		"longitude": "158.25"
	},
	{
		"name_en": "Moldova",
		"name_ru": "ĞœĞ¾Ğ»Ğ´Ğ°Ğ²Ğ¸Ñ",
		"code": "MD",
		"flag": "ğŸ‡²ğŸ‡©",
		"latitude": "47",
		"longitude": "29"
	},
	{
		"name_en": "Monaco",
		"name_ru": "ĞœĞ¾Ğ½Ğ°ĞºĞ¾",
		"code": "MC",
		"flag": "ğŸ‡²ğŸ‡¨",
		"latitude": "43.73333333",
		"longitude": "7.4"
	},
	{
		"name_en": "Mongolia",
		"name_ru": "ĞœĞ¾Ğ½Ğ³Ğ¾Ğ»Ğ¸Ñ",
		"code": "MN",
		"flag": "ğŸ‡²ğŸ‡³",
		"latitude": "46",
		"longitude": "105"
	},
	{
		"name_en": "Montenegro",
		"name_ru": "Ğ§ĞµÑ€Ğ½Ğ¾Ğ³Ğ¾Ñ€Ğ¸Ñ",
		"code": "ME",
		"flag": "ğŸ‡²ğŸ‡ª",
		"latitude": "42.5",
		"longitude": "19.3"
	},
	{
		"name_en": "Montserrat",
		"name_ru": "ĞœĞ¾Ğ½Ñ‚ÑĞµÑ€Ñ€Ğ°Ñ‚",
		"code": "MS",
		"flag": "ğŸ‡²ğŸ‡¸",
		"latitude": "16.75",
		"longitude": "-62.2"
	},
	{
		"name_en": "Morocco",
		"name_ru": "ĞœĞ°Ñ€Ğ¾ĞºĞºĞ¾",
		"code": "MA",
		"flag": "ğŸ‡²ğŸ‡¦",
		"latitude": "32",
		"longitude": "-5"
	},
	{
		"name_en": "Mozambique",
		"name_ru": "ĞœĞ¾Ğ·Ğ°Ğ¼Ğ±Ğ¸Ğº",
		"code": "MZ",
		"flag": "ğŸ‡²ğŸ‡¿",
		"latitude": "-18.25",
		"longitude": "35"
	},
	{
		"name_en": "Myanmar",
		"name_ru": "ĞœÑŒÑĞ½Ğ¼Ğ°",
		"code": "MM",
		"flag": "ğŸ‡²ğŸ‡²",
		"latitude": "22",
		"longitude": "98"
	},
	{
		"name_en": "Namibia",
		"name_ru": "ĞĞ°Ğ¼Ğ¸Ğ±Ğ¸Ñ",
		"code": "NA",
		"flag": "ğŸ‡³ğŸ‡¦",
		"latitude": "-22",
		"longitude": "17"
	},
	{
		"name_en": "Nauru",
		"name_ru": "ĞĞ°ÑƒÑ€Ñƒ",
		"code": "NR",
		"flag": "ğŸ‡³ğŸ‡·",
		"latitude": "-0.53333333",
		"longitude": "166.91666666"
	},
	{
		"name_en": "Nepal",
		"name_ru": "ĞĞµĞ¿Ğ°Ğ»",
		"code": "NP",
		"flag": "ğŸ‡³ğŸ‡µ",
		"latitude": "28",
		"longitude": "84"
	},
	{
		"name_en": "Netherlands",
		"name_ru": "ĞĞ¸Ğ´ĞµÑ€Ğ»Ğ°Ğ½Ğ´Ñ‹",
		"code": "NL",
		"flag": "ğŸ‡³ğŸ‡±",
		"latitude": "52.5",
		"longitude": "5.75"
	},
	{
		"name_en": "New Caledonia",
		"name_ru": "ĞĞ¾Ğ²Ğ°Ñ ĞšĞ°Ğ»ĞµĞ´Ğ¾Ğ½Ğ¸Ñ",
		"code": "NC",
		"flag": "ğŸ‡³ğŸ‡¨",
		"latitude": "-21.5",
		"longitude": "165.5"
	},
	{
		"name_en": "New Zealand",
		"name_ru": "ĞĞ¾Ğ²Ğ°Ñ Ğ—ĞµĞ»Ğ°Ğ½Ğ´Ğ¸Ñ",
		"code": "NZ",
		"flag": "ğŸ‡³ğŸ‡¿",
		"latitude": "-41",
		"longitude": "174"
	},
	{
		"name_en": "Nicaragua",
		"name_ru": "ĞĞ¸ĞºĞ°Ñ€Ğ°Ğ³ÑƒĞ°",
		"code": "NI",
		"flag": "ğŸ‡³ğŸ‡®",
		"latitude": "13",
		"longitude": "-85"
	},
	{
		"name_en": "Niger",
		"name_ru": "ĞĞ¸Ğ³ĞµÑ€",
		"code": "NE",
		"flag": "ğŸ‡³ğŸ‡ª",
		"latitude": "16",
		"longitude": "8"
	},
	{
		"name_en": "Nigeria",
		"name_ru": "ĞĞ¸Ğ³ĞµÑ€Ğ¸Ñ",
		"code": "NG",
		"flag": "ğŸ‡³ğŸ‡¬",
		"latitude": "10",
		"longitude": "8"
	},
	{
		"name_en": "Niue",
		"name_ru": "ĞĞ¸ÑƒÑ",
		"code": "NU",
		"flag": "ğŸ‡³ğŸ‡º",
		"latitude": "-19.03333333",
		"longitude": "-169.86666666"
	},
	{
		"name_en": "Norfolk Island",
		"name_ru": "ĞĞ¾Ñ€Ñ„Ğ¾Ğ»Ğº",
		"code": "NF",
		"flag": "ğŸ‡³ğŸ‡«",
		"latitude": "-29.03333333",
		"longitude": "167.95"
	},
	{
		"name_en": "North Korea",
		"name_ru": "Ğ¡ĞµĞ²ĞµÑ€Ğ½Ğ°Ñ ĞšĞ¾Ñ€ĞµÑ",
		"code": "KP",
		"flag": "ğŸ‡°ğŸ‡µ",
		"latitude": "40",
		"longitude": "127"
	},
	{
		"name_en": "North Macedonia",
		"name_ru": "Ğ¡ĞµĞ²ĞµÑ€Ğ½Ğ°Ñ ĞœĞ°ĞºĞµĞ´Ğ¾Ğ½Ğ¸Ñ",
		"code": "MK",
		"flag": "ğŸ‡²ğŸ‡°",
		"latitude": "41.83333333",
		"longitude": "22"
	},
	{
		"name_en": "Northern Mariana Islands",
		"name_ru": "Ğ¡ĞµĞ²ĞµÑ€Ğ½Ñ‹Ğµ ĞœĞ°Ñ€Ğ¸Ğ°Ğ½ÑĞºĞ¸Ğµ Ğ¾ÑÑ‚Ñ€Ğ¾Ğ²Ğ°",
		"code": "MP",
		"flag": "ğŸ‡²ğŸ‡µ",
		"latitude": "15.2",
		"longitude": "145.75"
	},
	{
		"name_en": "Norway",
		"name_ru": "ĞĞ¾Ñ€Ğ²ĞµĞ³Ğ¸Ñ",
		"code": "NO",
		"flag": "ğŸ‡³ğŸ‡´",
		"latitude": "62",
		"longitude": "10"
	},
	{
		"name_en": "Oman",
		"name_ru": "ĞĞ¼Ğ°Ğ½",
		"code": "OM",
		"flag": "ğŸ‡´ğŸ‡²",
		"latitude": "21",
		"longitude": "57"
	},
	{
		"name_en": "Pakistan",
		"name_ru": "ĞŸĞ°ĞºĞ¸ÑÑ‚Ğ°Ğ½",
		"code": "PK",
		"flag": "ğŸ‡µğŸ‡°",
		"latitude": "30",
		"longitude": "70"
	},
	{
		"name_en": "Palau",
		"name_ru": "ĞŸĞ°Ğ»Ğ°Ñƒ",
		"code": "PW",
		"flag": "ğŸ‡µğŸ‡¼",
		"latitude": "7.5",
		"longitude": "134.5"
	},
	{
		"name_en": "Palestine",
		"name_ru": "ĞŸĞ°Ğ»ĞµÑÑ‚Ğ¸Ğ½Ğ°",
		"code": "PS",
		"flag": "ğŸ‡µğŸ‡¸",
		"latitude": "31.9",
		"longitude": "35.2"
	},
	{
		"name_en": "Panama",
		"name_ru": "ĞŸĞ°Ğ½Ğ°Ğ¼Ğ°",
		"code": "PA",
		"flag": "ğŸ‡µğŸ‡¦",
		"latitude": "9",
		"longitude": "-80"
	},
	{
		"name_en": "Papua New Guinea",
		"name_ru": "ĞŸĞ°Ğ¿ÑƒĞ° â€” ĞĞ¾Ğ²Ğ°Ñ Ğ“Ğ²Ğ¸Ğ½ĞµÑ",
		"code": "PG",
		"flag": "ğŸ‡µğŸ‡¬",
		"latitude": "-6",
		"longitude": "147"
	},
	{
		"name_en": "Paraguay",
		"name_ru": "ĞŸĞ°Ñ€Ğ°Ğ³Ğ²Ğ°Ğ¹",
		"code": "PY",
		"flag": "ğŸ‡µğŸ‡¾",
		"latitude": "-23",
		"longitude": "-58"
	},
	{
		"name_en": "Peru",
		"name_ru": "ĞŸĞµÑ€Ñƒ",
		"code": "PE",
		"flag": "ğŸ‡µğŸ‡ª",
		"latitude": "-10",
		"longitude": "-76"
	},
	{
		"name_en": "Philippines",
		"name_ru": "Ğ¤Ğ¸Ğ»Ğ¸Ğ¿Ğ¿Ğ¸Ğ½Ñ‹",
		"code": "PH",
		"flag": "ğŸ‡µğŸ‡­",
		"latitude": "13",
		"longitude": "122"
	},
	{
		"name_en": "Pitcairn Islands",
		"name_ru": "ĞÑÑ‚Ñ€Ğ¾Ğ²Ğ° ĞŸĞ¸Ñ‚ĞºÑÑ€Ğ½",
		"code": "PN",
		"flag": "ğŸ‡µğŸ‡³",
		"latitude": "-25.06666666",
		"longitude": "-130.1"
	},
	{
		"name_en": "Poland",
		"name_ru": "ĞŸĞ¾Ğ»ÑŒÑˆĞ°",
		"code": "PL",
		"flag": "ğŸ‡µğŸ‡±",
		"latitude": "52",
		"longitude": "20"
	},
	{
		"name_en": "Portugal",
		"name_ru": "ĞŸĞ¾Ñ€Ñ‚ÑƒĞ³Ğ°Ğ»Ğ¸Ñ",
		"code": "PT",
		"flag": "ğŸ‡µğŸ‡¹",
		"latitude": "39.5",
		"longitude": "-8"
	},
	{
		"name_en": "Puerto Rico",
		"name_ru": "ĞŸÑƒÑÑ€Ñ‚Ğ¾-Ğ Ğ¸ĞºĞ¾",
		"code": "PR",
		"flag": "ğŸ‡µğŸ‡·",
		"latitude": "18.25",
		"longitude": "-66.5"
	},
	{
		"name_en": "Qatar",
		"name_ru": "ĞšĞ°Ñ‚Ğ°Ñ€",
		"code": "QA",
		"flag": "ğŸ‡¶ğŸ‡¦",
		"latitude": "25.5",
		"longitude": "51.25"
	},
	{
		"name_en": "RÃ©union",
		"name_ru": "Ğ ĞµÑĞ½ÑŒĞ¾Ğ½",
		"code": "RE",
		"flag": "ğŸ‡·ğŸ‡ª",
		"latitude": "-21.15",
		"longitude": "55.5"
	},
	{
		"name_en": "Romania",
		"name_ru": "Ğ ÑƒĞ¼Ñ‹Ğ½Ğ¸Ñ",
		"code": "RO",
		"flag": "ğŸ‡·ğŸ‡´",
		"latitude": "46",
		"longitude": "25"
	},
	{
		"name_en": "Russia",
		"name_ru": "Ğ Ğ¾ÑÑĞ¸Ñ",
		"code": "RU",
		"flag": "ğŸ‡·ğŸ‡º",
		"latitude": "60",
		"longitude": "100"
	},
	{
		"name_en": "Rwanda",
		"name_ru": "Ğ ÑƒĞ°Ğ½Ğ´Ğ°",
		"code": "RW",
		"flag": "ğŸ‡·ğŸ‡¼",
		"latitude": "-2",
		"longitude": "30"
	},
	{
		"name_en": "Saint BarthÃ©lemy",
		"name_ru": "Ğ¡ĞµĞ½-Ğ‘Ğ°Ñ€Ñ‚ĞµĞ»ĞµĞ¼Ğ¸",
		"code": "BL",
		"flag": "ğŸ‡§ğŸ‡±",
		"latitude": "18.5",
		"longitude": "-63.41666666"
	},
	{
		"name_en": "Saint Helena, Ascension and Tristan da Cunha",
		"name_ru": "ĞÑÑ‚Ñ€Ğ¾Ğ²Ğ° Ğ¡Ğ²ÑÑ‚Ğ¾Ğ¹ Ğ•Ğ»ĞµĞ½Ñ‹, Ğ’Ğ¾Ğ·Ğ½ĞµÑĞµĞ½Ğ¸Ñ Ğ¸ Ğ¢Ñ€Ğ¸ÑÑ‚Ğ°Ğ½-Ğ´Ğ°-ĞšÑƒĞ½ÑŒÑ",
		"code": "SH",
		"flag": "ğŸ‡¸ğŸ‡­",
		"latitude": "-15.95",
		"longitude": "-5.72"
	},
	{
		"name_en": "Saint Kitts and Nevis",
		"name_ru": "Ğ¡ĞµĞ½Ñ‚-ĞšĞ¸Ñ‚Ñ Ğ¸ ĞĞµĞ²Ğ¸Ñ",
		"code": "KN",
		"flag": "ğŸ‡°ğŸ‡³",
		"latitude": "17.33333333",
		"longitude": "-62.75"
	},
	{
		"name_en": "Saint Lucia",
		"name_ru": "Ğ¡ĞµĞ½Ñ‚-Ğ›ÑÑĞ¸Ñ",
		"code": "LC",
		"flag": "ğŸ‡±ğŸ‡¨",
		"latitude": "13.88333333",
		"longitude": "-60.96666666"
	},
	{
		"name_en": "Saint Martin",
		"name_ru": "Ğ¡ĞµĞ½-ĞœĞ°Ñ€Ñ‚ĞµĞ½",
		"code": "MF",
		"flag": "ğŸ‡²ğŸ‡«",
		"latitude": "18.08333333",
		"longitude": "-63.95"
	},
	{
		"name_en": "Saint Pierre and Miquelon",
		"name_ru": "Ğ¡ĞµĞ½-ĞŸÑŒĞµÑ€ Ğ¸ ĞœĞ¸ĞºĞµĞ»Ğ¾Ğ½",
		"code": "PM",
		"flag": "ğŸ‡µğŸ‡²",
		"latitude": "46.83333333",
		"longitude": "-56.33333333"
	},
	{
		"name_en": "Saint Vincent and the Grenadines",
		"name_ru": "Ğ¡ĞµĞ½Ñ‚-Ğ’Ğ¸Ğ½ÑĞµĞ½Ñ‚ Ğ¸ Ğ“Ñ€ĞµĞ½Ğ°Ğ´Ğ¸Ğ½Ñ‹",
		"code": "VC",
		"flag": "ğŸ‡»ğŸ‡¨",
		"latitude": "13.25",
		"longitude": "-61.2"
	},
	{
		"name_en": "Samoa",
		"name_ru": "Ğ¡Ğ°Ğ¼Ğ¾Ğ°",
		"code": "WS",
		"flag": "ğŸ‡¼ğŸ‡¸",
		"latitude": "-13.58333333",
		"longitude": "-172.33333333"
	},
	{
		"name_en": "San Marino",
		"name_ru": "Ğ¡Ğ°Ğ½-ĞœĞ°Ñ€Ğ¸Ğ½Ğ¾",
		"code": "SM",
		"flag": "ğŸ‡¸ğŸ‡²",
		"latitude": "43.76666666",
		"longitude": "12.41666666"
	},
	{
		"name_en": "SÃ£o TomÃ© and PrÃ­ncipe",
		"name_ru": "Ğ¡Ğ°Ğ½-Ğ¢Ğ¾Ğ¼Ğµ Ğ¸ ĞŸÑ€Ğ¸Ğ½ÑĞ¸Ğ¿Ğ¸",
		"code": "ST",
		"flag": "ğŸ‡¸ğŸ‡¹",
		"latitude": "1",
		"longitude": "7"
	},
	{
		"name_en": "Saudi Arabia",
		"name_ru": "Ğ¡Ğ°ÑƒĞ´Ğ¾Ğ²ÑĞºĞ°Ñ ĞÑ€Ğ°Ğ²Ğ¸Ñ",
		"code": "SA",
		"flag": "ğŸ‡¸ğŸ‡¦",
		"latitude": "25",
		"longitude": "45"
	},
	{
		"name_en": "Senegal",
		"name_ru": "Ğ¡ĞµĞ½ĞµĞ³Ğ°Ğ»",
		"code": "SN",
		"flag": "ğŸ‡¸ğŸ‡³",
		"latitude": "14",
		"longitude": "-14"
	},
	{
		"name_en": "Serbia",
		"name_ru": "Ğ¡ĞµÑ€Ğ±Ğ¸Ñ",
		"code": "RS",
		"flag": "ğŸ‡·ğŸ‡¸",
		"latitude": "44",
		"longitude": "21"
	},
	{
		"name_en": "Seychelles",
		"name_ru": "Ğ¡ĞµĞ¹ÑˆĞµĞ»ÑŒÑĞºĞ¸Ğµ ĞÑÑ‚Ñ€Ğ¾Ğ²Ğ°",
		"code": "SC",
		"flag": "ğŸ‡¸ğŸ‡¨",
		"latitude": "-4.58333333",
		"longitude": "55.66666666"
	},
	{
		"name_en": "Sierra Leone",
		"name_ru": "Ğ¡ÑŒĞµÑ€Ñ€Ğ°-Ğ›ĞµĞ¾Ğ½Ğµ",
		"code": "SL",
		"flag": "ğŸ‡¸ğŸ‡±",
		"latitude": "8.5",
		"longitude": "-11.5"
	},
	{
		"name_en": "Singapore",
		"name_ru": "Ğ¡Ğ¸Ğ½Ğ³Ğ°Ğ¿ÑƒÑ€",
		"code": "SG",
		"flag": "ğŸ‡¸ğŸ‡¬",
		"latitude": "1.36666666",
		"longitude": "103.8"
	},
	{
		"name_en": "Sint Maarten",
		"name_ru": "Ğ¡Ğ¸Ğ½Ñ‚-ĞœĞ°Ñ€Ñ‚ĞµĞ½",
		"code": "SX",
		"flag": "ğŸ‡¸ğŸ‡½",
		"latitude": "18.033333",
		"longitude": "-63.05"
	},
	{
		"name_en": "Slovakia",
		"name_ru": "Ğ¡Ğ»Ğ¾Ğ²Ğ°ĞºĞ¸Ñ",
		"code": "SK",
		"flag": "ğŸ‡¸ğŸ‡°",
		"latitude": "48.66666666",
		"longitude": "19.5"
	},
	{
		"name_en": "Slovenia",
		"name_ru": "Ğ¡Ğ»Ğ¾Ğ²ĞµĞ½Ğ¸Ñ",
		"code": "SI",
		"flag": "ğŸ‡¸ğŸ‡®",
		"latitude": "46.11666666",
		"longitude": "14.81666666"
	},
	{
		"name_en": "Solomon Islands",
		"name_ru": "Ğ¡Ğ¾Ğ»Ğ¾Ğ¼Ğ¾Ğ½Ğ¾Ğ²Ñ‹ ĞÑÑ‚Ñ€Ğ¾Ğ²Ğ°",
		"code": "SB",
		"flag": "ğŸ‡¸ğŸ‡§",
		"latitude": "-8",
		"longitude": "159"
	},
	{
		"name_en": "Somalia",
		"name_ru": "Ğ¡Ğ¾Ğ¼Ğ°Ğ»Ğ¸",
		"code": "SO",
		"flag": "ğŸ‡¸ğŸ‡´",
		"latitude": "10",
		"longitude": "49"
	},
	{
		"name_en": "South Africa",
		"name_ru": "Ğ®Ğ¶Ğ½Ğ¾-ĞÑ„Ñ€Ğ¸ĞºĞ°Ğ½ÑĞºĞ°Ñ Ğ ĞµÑĞ¿ÑƒĞ±Ğ»Ğ¸ĞºĞ°",
		"code": "ZA",
		"flag": "ğŸ‡¿ğŸ‡¦",
		"latitude": "-29",
		"longitude": "24"
	},
	{
		"name_en": "South Georgia",
		"name_ru": "Ğ®Ğ¶Ğ½Ğ°Ñ Ğ“ĞµĞ¾Ñ€Ğ³Ğ¸Ñ Ğ¸ Ğ®Ğ¶Ğ½Ñ‹Ğµ Ğ¡Ğ°Ğ½Ğ´Ğ²Ğ¸Ñ‡ĞµĞ²Ñ‹ Ğ¾ÑÑ‚Ñ€Ğ¾Ğ²Ğ°",
		"code": "GS",
		"flag": "ğŸ‡¬ğŸ‡¸",
		"latitude": "-54.5",
		"longitude": "-37"
	},
	{
		"name_en": "South Korea",
		"name_ru": "Ğ®Ğ¶Ğ½Ğ°Ñ ĞšĞ¾Ñ€ĞµÑ",
		"code": "KR",
		"flag": "ğŸ‡°ğŸ‡·",
		"latitude": "37",
		"longitude": "127.5"
	},
	{
		"name_en": "South Sudan",
		"name_ru": "Ğ®Ğ¶Ğ½Ñ‹Ğ¹ Ğ¡ÑƒĞ´Ğ°Ğ½",
		"code": "SS",
		"flag": "ğŸ‡¸ğŸ‡¸",
		"latitude": "7",
		"longitude": "30"
	},
	{
		"name_en": "Spain",
		"name_ru": "Ğ˜ÑĞ¿Ğ°Ğ½Ğ¸Ñ",
		"code": "ES",
		"flag": "ğŸ‡ªğŸ‡¸",
		"latitude": "40",
		"longitude": "-4"
	},
	{
		"name_en": "Sri Lanka",
		"name_ru": "Ğ¨Ñ€Ğ¸-Ğ›Ğ°Ğ½ĞºĞ°",
		"code": "LK",
		"flag": "ğŸ‡±ğŸ‡°",
		"latitude": "7",
		"longitude": "81"
	},
	{
		"name_en": "Sudan",
		"name_ru": "Ğ¡ÑƒĞ´Ğ°Ğ½",
		"code": "SD",
		"flag": "ğŸ‡¸ğŸ‡©",
		"latitude": "15",
		"longitude": "30"
	},
	{
		"name_en": "Suriname",
		"name_ru": "Ğ¡ÑƒÑ€Ğ¸Ğ½Ğ°Ğ¼",
		"code": "SR",
		"flag": "ğŸ‡¸ğŸ‡·",
		"latitude": "4",
		"longitude": "-56"
	},
	{
		"name_en": "Svalbard and Jan Mayen",
		"name_ru": "Ğ¨Ğ¿Ğ¸Ñ†Ğ±ĞµÑ€Ğ³ĞµĞ½ Ğ¸ Ğ¯Ğ½-ĞœĞ°Ğ¹ĞµĞ½",
		"code": "SJ",
		"flag": "ğŸ‡¸ğŸ‡¯",
		"latitude": "78",
		"longitude": "20"
	},
	{
		"name_en": "Sweden",
		"name_ru": "Ğ¨Ğ²ĞµÑ†Ğ¸Ñ",
		"code": "SE",
		"flag": "ğŸ‡¸ğŸ‡ª",
		"latitude": "62",
		"longitude": "15"
	},
	{
		"name_en": "Switzerland",
		"name_ru": "Ğ¨Ğ²ĞµĞ¹Ñ†Ğ°Ñ€Ğ¸Ñ",
		"code": "CH",
		"flag": "ğŸ‡¨ğŸ‡­",
		"latitude": "47",
		"longitude": "8"
	},
	{
		"name_en": "Syria",
		"name_ru": "Ğ¡Ğ¸Ñ€Ğ¸Ñ",
		"code": "SY",
		"flag": "ğŸ‡¸ğŸ‡¾",
		"latitude": "35",
		"longitude": "38"
	},
	{
		"name_en": "Taiwan",
		"name_ru": "Ğ¢Ğ°Ğ¹Ğ²Ğ°Ğ½ÑŒ",
		"code": "TW",
		"flag": "ğŸ‡¹ğŸ‡¼",
		"latitude": "23.5",
		"longitude": "121"
	},
	{
		"name_en": "Tajikistan",
		"name_ru": "Ğ¢Ğ°Ğ´Ğ¶Ğ¸ĞºĞ¸ÑÑ‚Ğ°Ğ½",
		"code": "TJ",
		"flag": "ğŸ‡¹ğŸ‡¯",
		"latitude": "39",
		"longitude": "71"
	},
	{
		"name_en": "Tanzania",
		"name_ru": "Ğ¢Ğ°Ğ½Ğ·Ğ°Ğ½Ğ¸Ñ",
		"code": "TZ",
		"flag": "ğŸ‡¹ğŸ‡¿",
		"latitude": "-6",
		"longitude": "35"
	},
	{
		"name_en": "Thailand",
		"name_ru": "Ğ¢Ğ°Ğ¸Ğ»Ğ°Ğ½Ğ´",
		"code": "TH",
		"flag": "ğŸ‡¹ğŸ‡­",
		"latitude": "15",
		"longitude": "100"
	},
	{
		"name_en": "Timor-Leste",
		"name_ru": "Ğ’Ğ¾ÑÑ‚Ğ¾Ñ‡Ğ½Ñ‹Ğ¹ Ğ¢Ğ¸Ğ¼Ğ¾Ñ€",
		"code": "TL",
		"flag": "ğŸ‡¹ğŸ‡±",
		"latitude": "-8.83333333",
		"longitude": "125.91666666"
	},
	{
		"name_en": "Togo",
		"name_ru": "Ğ¢Ğ¾Ğ³Ğ¾",
		"code": "TG",
		"flag": "ğŸ‡¹ğŸ‡¬",
		"latitude": "8",
		"longitude": "1.16666666"
	},
	{
		"name_en": "Tokelau",
		"name_ru": "Ğ¢Ğ¾ĞºĞµĞ»Ğ°Ñƒ",
		"code": "TK",
		"flag": "ğŸ‡¹ğŸ‡°",
		"latitude": "-9",
		"longitude": "-172"
	},
	{
		"name_en": "Tonga",
		"name_ru": "Ğ¢Ğ¾Ğ½Ğ³Ğ°",
		"code": "TO",
		"flag": "ğŸ‡¹ğŸ‡´",
		"latitude": "-20",
		"longitude": "-175"
	},
	{
		"name_en": "Trinidad and Tobago",
		"name_ru": "Ğ¢Ñ€Ğ¸Ğ½Ğ¸Ğ´Ğ°Ğ´ Ğ¸ Ğ¢Ğ¾Ğ±Ğ°Ğ³Ğ¾",
		"code": "TT",
		"flag": "ğŸ‡¹ğŸ‡¹",
		"latitude": "11",
		"longitude": "-61"
	},
	{
		"name_en": "Tunisia",
		"name_ru": "Ğ¢ÑƒĞ½Ğ¸Ñ",
		"code": "TN",
		"flag": "ğŸ‡¹ğŸ‡³",
		"latitude": "34",
		"longitude": "9"
	},
	{
		"name_en": "TÃ¼rkiye",
		"name_ru": "Ğ¢ÑƒÑ€Ñ†Ğ¸Ñ",
		"code": "TR",
		"flag": "ğŸ‡¹ğŸ‡·",
		"latitude": "39",
		"longitude": "35"
	},
	{
		"name_en": "Turkmenistan",
		"name_ru": "Ğ¢ÑƒÑ€ĞºĞ¼ĞµĞ½Ğ¸Ñ",
		"code": "TM",
		"flag": "ğŸ‡¹ğŸ‡²",
		"latitude": "40",
		"longitude": "60"
	},
	{
		"name_en": "Turks and Caicos Islands",
		"name_ru": "Ğ¢ĞµÑ€ĞºÑ Ğ¸ ĞšĞ°Ğ¹ĞºĞ¾Ñ",
		"code": "TC",
		"flag": "ğŸ‡¹ğŸ‡¨",
		"latitude": "21.75",
		"longitude": "-71.58333333"
	},
	{
		"name_en": "Tuvalu",
		"name_ru": "Ğ¢ÑƒĞ²Ğ°Ğ»Ñƒ",
		"code": "TV",
		"flag": "ğŸ‡¹ğŸ‡»",
		"latitude": "-8",
		"longitude": "178"
	},
	{
		"name_en": "Uganda",
		"name_ru": "Ğ£Ğ³Ğ°Ğ½Ğ´Ğ°",
		"code": "UG",
		"flag": "ğŸ‡ºğŸ‡¬",
		"latitude": "1",
		"longitude": "32"
	},
	{
		"name_en": "Ukraine",
		"name_ru": "Ğ£ĞºÑ€Ğ°Ğ¸Ğ½Ğ°",
		"code": "UA",
		"flag": "ğŸ‡ºğŸ‡¦",
		"latitude": "49",
		"longitude": "32"
	},
	{
		"name_en": "United Arab Emirates",
		"name_ru": "ĞĞ±ÑŠĞµĞ´Ğ¸Ğ½Ñ‘Ğ½Ğ½Ñ‹Ğµ ĞÑ€Ğ°Ğ±ÑĞºĞ¸Ğµ Ğ­Ğ¼Ğ¸Ñ€Ğ°Ñ‚Ñ‹",
		"code": "AE",
		"flag": "ğŸ‡¦ğŸ‡ª",
		"latitude": "24",
		"longitude": "54"
	},
	{
		"name_en": "United Kingdom",
		"name_ru": "Ğ’ĞµĞ»Ğ¸ĞºĞ¾Ğ±Ñ€Ğ¸Ñ‚Ğ°Ğ½Ğ¸Ñ",
		"code": "GB",
		"flag": "ğŸ‡¬ğŸ‡§",
		"latitude": "54",
		"longitude": "-2"
	},
	{
		"name_en": "United States",
		"name_ru": "Ğ¡Ğ¾ĞµĞ´Ğ¸Ğ½Ñ‘Ğ½Ğ½Ñ‹Ğµ Ğ¨Ñ‚Ğ°Ñ‚Ñ‹ ĞĞ¼ĞµÑ€Ğ¸ĞºĞ¸",
		"code": "US",
		"flag": "ğŸ‡ºğŸ‡¸",
		"latitude": "38",
		"longitude": "-97"
	},
	{
		"name_en": "United States Minor Outlying Islands",
		"name_ru": "Ğ’Ğ½ĞµÑˆĞ½Ğ¸Ğµ Ğ¼Ğ°Ğ»Ñ‹Ğµ Ğ¾ÑÑ‚Ñ€Ğ¾Ğ²Ğ° Ğ¡Ğ¨Ğ",
		"code": "UM",
		"flag": "ğŸ‡ºğŸ‡²",
		"latitude": "19.3",
		"longitude": "166.633333"
	},
	{
		"name_en": "United States Virgin Islands",
		"name_ru": "Ğ’Ğ¸Ñ€Ğ³Ğ¸Ğ½ÑĞºĞ¸Ğµ ĞÑÑ‚Ñ€Ğ¾Ğ²Ğ°",
		"code": "VI",
		"flag": "ğŸ‡»ğŸ‡®",
		"latitude": "18.35",
		"longitude": "-64.933333"
	},
	{
		"name_en": "Uruguay",
		"name_ru": "Ğ£Ñ€ÑƒĞ³Ğ²Ğ°Ğ¹",
		"code": "UY",
		"flag": "ğŸ‡ºğŸ‡¾",
		"latitude": "-33",
		"longitude": "-56"
	},
	{
		"name_en": "Uzbekistan",
		"name_ru": "Ğ£Ğ·Ğ±ĞµĞºĞ¸ÑÑ‚Ğ°Ğ½",
		"code": "UZ",
		"flag": "ğŸ‡ºğŸ‡¿",
		"latitude": "41",
		"longitude": "64"
	},
	{
		"name_en": "Vanuatu",
		"name_ru": "Ğ’Ğ°Ğ½ÑƒĞ°Ñ‚Ñƒ",
		"code": "VU",
		"flag": "ğŸ‡»ğŸ‡º",
		"latitude": "-16",
		"longitude": "167"
	},
	{
		"name_en": "Vatican City",
		"name_ru": "Ğ’Ğ°Ñ‚Ğ¸ĞºĞ°Ğ½",
		"code": "VA",
		"flag": "ğŸ‡»ğŸ‡¦",
		"latitude": "41.9",
		"longitude": "12.45"
	},
	{
		"name_en": "Venezuela",
		"name_ru": "Ğ’ĞµĞ½ĞµÑÑƒÑĞ»Ğ°",
		"code": "VE",
		"flag": "ğŸ‡»ğŸ‡ª",
		"latitude": "8",
		"longitude": "-66"
	},
	{
		"name_en": "Vietnam",
		"name_ru": "Ğ’ÑŒĞµÑ‚Ğ½Ğ°Ğ¼",
		"code": "VN",
		"flag": "ğŸ‡»ğŸ‡³",
		"latitude": "16.16666666",
		"longitude": "107.83333333"
	},
	{
		"name_en": "Wallis and Futuna",
		"name_ru": "Ğ£Ğ¾Ğ»Ğ»Ğ¸Ñ Ğ¸ Ğ¤ÑƒÑ‚ÑƒĞ½Ğ°",
		"code": "WF",
		"flag": "ğŸ‡¼ğŸ‡«",
		"latitude": "-13.3",
		"longitude": "-176.2"
	},
	{
		"name_en": "Western Sahara",
		"name_ru": "Ğ—Ğ°Ğ¿Ğ°Ğ´Ğ½Ğ°Ñ Ğ¡Ğ°Ñ…Ğ°Ñ€Ğ°",
		"code": "EH",
		"flag": "ğŸ‡ªğŸ‡­",
		"latitude": "24.5",
		"longitude": "-13"
	},
	{
		"name_en": "Yemen",
		"name_ru": "Ğ™ĞµĞ¼ĞµĞ½",
		"code": "YE",
		"flag": "ğŸ‡¾ğŸ‡ª",
		"latitude": "15",
		"longitude": "48"
	},
	{
		"name_en": "Zambia",
		"name_ru": "Ğ—Ğ°Ğ¼Ğ±Ğ¸Ñ",
		"code": "ZM",
		"flag": "ğŸ‡¿ğŸ‡²",
		"latitude": "-15",
		"longitude": "30"
	},
	{
		"name_en": "Zimbabwe",
		"name_ru": "Ğ—Ğ¸Ğ¼Ğ±Ğ°Ğ±Ğ²Ğµ",
		"code": "ZW",
		"flag": "ğŸ‡¿ğŸ‡¼",
		"latitude": "-20",
		"longitude": "30"
	}
]
